ISS (ZARYA)             
1 25544U 98067A   26194.76644922  .00004013  00000+0  80956-4 0  9991
2 25544  51.6307 168.5527 0006711 292.2587  67.7689 15.49001429575878
POISK                   
1 36086U 09060A   26194.76644922  .00004013  00000+0  80956-4 0  9999
2 36086  51.6307 168.5527 0006711 292.2587  67.7689 15.49001429575758
CSS (TIANHE)            
1 48274U 21035A   26194.86888909  .00000780  00000+0  14357-4 0  9992
2 48274  41.4690 159.8761 0002698 307.1688  52.8903 15.58061298297332
ISS (NAUKA)             
1 49044U 21066A   26194.76644922  .00004013  00000+0  80956-4 0  9997
2 49044  51.6307 168.5527 0006711 292.2587  67.7689 15.49001429575778
FREGAT DEB              
1 49271U 11037PF  26194.51910088  .00013795  00000+0  23384-1 0  9994
2 49271  51.6177 282.7388 0899815 339.7873  16.9385 12.42712902228329
CSS (WENTIAN)           
1 53239U 22085A   26194.54839549  .00000774  00000+0  14285-4 0  9999
2 53239  41.4687 161.8154 0002308 295.5855  64.4744 15.58055023288238
CSS (MENGTIAN)          
1 54216U 22143A   26194.86888909  .00000780  00000+0  14357-4 0  9996
2 54216  41.4690 159.8761 0002698 307.1688  52.8903 15.58061298296750
HRC MONOBLOCK CAMERA    
1 66052U 98067XR  26194.26278987  .00067354  00000+0  38764-3 0  9995
2 66052  51.6194 144.8304 0001546  61.5692 298.5464 15.78076952 42112
SZ-21 MODULE            
1 66515U 25246C   26194.23468587  .00036875  00000+0  20511-3 0  9997
2 66515  41.4707 144.8204 0007887 207.7772 152.2653 15.78673057 37859
SOYUZ-MS 28             
1 66664U 25275A   26194.76644922  .00004013  00000+0  80956-4 0  9990
2 66664  51.6307 168.5527 0006711 292.2587  67.7689 15.49001429575810
DUPLEX                  
1 66906U 98067XS  26194.51302110  .00026322  00000+0  27301-3 0  9992
2 66906  51.6247 156.3374 0002525 330.1562  29.9288 15.64469865 34770
KNACKSAT-2              
1 67683U 98067XZ  26194.27582286  .00036553  00000+0  40980-3 0  9997
2 67683  51.6258 163.0209 0008057 321.9354  38.1070 15.62269029 24352
CORAL                   
1 67684U 98067YA  26194.27555644  .00328487  50975-4  10690-2 0  9991
2 67684  51.6160 152.3968 0003924   5.8420 354.2630 15.90188531 24496
GXIBA-1                 
1 67685U 98067YB  26193.92782705  .00052985  00000+0  54403-3 0  9990
2 67685  51.6233 163.6868 0008699 319.0392  40.9949 15.64340851 24313
UITMSAT-2               
1 67686U 98067YC  26193.94030852  .00080007  00000+0  68269-3 0  9993
2 67686  51.6229 161.5118 0004015 319.0645  41.0050 15.68803043 24342
LEOPARD                 
1 67687U 98067YD  26194.28491144  .00043934  00000+0  46737-3 0  9991
2 67687  51.6262 162.3417 0004736 303.5147  56.5395 15.63553779 24285
HMU-SAT2                
1 67688U 98067YE  26194.27909808  .00050291  00000+0  47156-3 0  9992
2 67688  51.6249 160.7902 0004143 312.3343  47.7301 15.66674956 24306
