[{"OBJECT_NAME":"ISS (ZARYA)","OBJECT_ID":"1998-067A","EPOCH":"2026-07-13T18:23:41.212608","MEAN_MOTION":15.49001429,"ECCENTRICITY":0.0006711,"INCLINATION":51.6307,"RA_OF_ASC_NODE":168.5527,"ARG_OF_PERICENTER":292.2587,"MEAN_ANOMALY":67.7689,"EPHEMERIS_TYPE":0,"CLASSIFICATION_TYPE":"U","NORAD_CAT_ID":25544,"ELEMENT_SET_NO":999,"REV_AT_EPOCH":57587,"BSTAR":8.0956e-5,"MEAN_MOTION_DOT":4.013e-5,"MEAN_MOTION_DDOT":0},{"OBJECT_NAME":"POISK","OBJECT_ID":"2009-060A","EPOCH":"2026-07-13T18:23:41.212608","MEAN_MOTION":15.49001429,"ECCENTRICITY":0.0006711,"INCLINATION":51.6307,"RA_OF_ASC_NODE":168.5527,"ARG_OF_PERICENTER":292.2587,"MEAN_ANOMALY":67.7689,"EPHEMERIS_TYPE":0,"CLASSIFICATION_TYPE":"U","NORAD_CAT_ID":36086,"ELEMENT_SET_NO":999,"REV_AT_EPOCH":57575,"BSTAR":8.0956e-5,"MEAN_MOTION_DOT":4.013e-5,"MEAN_MOTION_DDOT":0},{"OBJECT_NAME":"CSS (TIANHE)","OBJECT_ID":"2021-035A","EPOCH":"2026-07-13T20:51:12.017376","MEAN_MOTION":15.58061298,"ECCENTRICITY":0.0002698,"INCLINATION":41.469,"RA_OF_ASC_NODE":159.8761,"ARG_OF_PERICENTER":307.1688,"MEAN_ANOMALY":52.8903,"EPHEMERIS_TYPE":0,"CLASSIFICATION_TYPE":"U","NORAD_CAT_ID":48274,"ELEMENT_SET_NO":999,"REV_AT_EPOCH":29733,"BSTAR":1.4357e-5,"MEAN_MOTION_DOT":7.8e-6,"MEAN_MOTION_DDOT":0},{"OBJECT_NAME":"ISS (NAUKA)","OBJECT_ID":"2021-066A","EPOCH":"2026-07-13T18:23:41.212608","MEAN_MOTION":15.49001429,"ECCENTRICITY":0.0006711,"INCLINATION":51.6307,"RA_OF_ASC_NODE":168.5527,"ARG_OF_PERICENTER":292.2587,"MEAN_ANOMALY":67.7689,"EPHEMERIS_TYPE":0,"CLASSIFICATION_TYPE":"U","NORAD_CAT_ID":49044,"ELEMENT_SET_NO":999,"REV_AT_EPOCH":57577,"BSTAR":8.0956e-5,"MEAN_MOTION_DOT":4.013e-5,"MEAN_MOTION_DDOT":0},{"OBJECT_NAME":"FREGAT DEB","OBJECT_ID":"2011-037PF","EPOCH":"2026-07-13T12:27:30.316032","MEAN_MOTION":12.42712902,"ECCENTRICITY":0.0899815,"INCLINATION":51.6177,"RA_OF_ASC_NODE":282.7388,"ARG_OF_PERICENTER":339.7873,"MEAN_ANOMALY":16.9385,"EPHEMERIS_TYPE":0,"CLASSIFICATION_TYPE":"U","NORAD_CAT_ID":49271,"ELEMENT_SET_NO":999,"REV_AT_EPOCH":22832,"BSTAR":0.023384,"MEAN_MOTION_DOT":0.00013795,"MEAN_MOTION_DDOT":0},{"OBJECT_NAME":"CSS (WENTIAN)","OBJECT_ID":"2022-085A","EPOCH":"2026-07-13T13:09:41.370336","MEAN_MOTION":15.58055023,"ECCENTRICITY":0.00023088,"INCLINATION":41.4687,"RA_OF_ASC_NODE":161.8154,"ARG_OF_PERICENTER":295.5855,"MEAN_ANOMALY":64.4744,"EPHEMERIS_TYPE":0,"CLASSIFICATION_TYPE":"U","NORAD_CAT_ID":53239,"ELEMENT_SET_NO":999,"REV_AT_EPOCH":28823,"BSTAR":1.4285014e-5,"MEAN_MOTION_DOT":7.74e-6,"MEAN_MOTION_DDOT":0},{"OBJECT_NAME":"CSS (MENGTIAN)","OBJECT_ID":"2022-143A","EPOCH":"2026-07-13T20:51:12.017376","MEAN_MOTION":15.58061298,"ECCENTRICITY":0.0002698,"INCLINATION":41.469,"RA_OF_ASC_NODE":159.8761,"ARG_OF_PERICENTER":307.1688,"MEAN_ANOMALY":52.8903,"EPHEMERIS_TYPE":0,"CLASSIFICATION_TYPE":"U","NORAD_CAT_ID":54216,"ELEMENT_SET_NO":999,"REV_AT_EPOCH":29675,"BSTAR":1.4357e-5,"MEAN_MOTION_DOT":7.8e-6,"MEAN_MOTION_DDOT":0},{"OBJECT_NAME":"HRC MONOBLOCK CAMERA","OBJECT_ID":"1998-067XR","EPOCH":"2026-07-13T06:18:25.044768","MEAN_MOTION":15.78076952,"ECCENTRICITY":0.0001546,"INCLINATION":51.6194,"RA_OF_ASC_NODE":144.8304,"ARG_OF_PERICENTER":61.5692,"MEAN_ANOMALY":298.5464,"EPHEMERIS_TYPE":0,"CLASSIFICATION_TYPE":"U","NORAD_CAT_ID":66052,"ELEMENT_SET_NO":999,"REV_AT_EPOCH":4211,"BSTAR":0.00038764,"MEAN_MOTION_DOT":0.00067354,"MEAN_MOTION_DDOT":0},{"OBJECT_NAME":"SZ-21 MODULE","OBJECT_ID":"2025-246C","EPOCH":"2026-07-13T05:37:56.859168","MEAN_MOTION":15.78673057,"ECCENTRICITY":0.0007887,"INCLINATION":41.4707,"RA_OF_ASC_NODE":144.8204,"ARG_OF_PERICENTER":207.7772,"MEAN_ANOMALY":152.2653,"EPHEMERIS_TYPE":0,"CLASSIFICATION_TYPE":"U","NORAD_CAT_ID":66515,"ELEMENT_SET_NO":999,"REV_AT_EPOCH":3785,"BSTAR":0.00020511,"MEAN_MOTION_DOT":0.00036875,"MEAN_MOTION_DDOT":0},{"OBJECT_NAME":"SOYUZ-MS 28","OBJECT_ID":"2025-275A","EPOCH":"2026-07-13T18:23:41.212608","MEAN_MOTION":15.49001429,"ECCENTRICITY":0.0006711,"INCLINATION":51.6307,"RA_OF_ASC_NODE":168.5527,"ARG_OF_PERICENTER":292.2587,"MEAN_ANOMALY":67.7689,"EPHEMERIS_TYPE":0,"CLASSIFICATION_TYPE":"U","NORAD_CAT_ID":66664,"ELEMENT_SET_NO":999,"REV_AT_EPOCH":57581,"BSTAR":8.0956e-5,"MEAN_MOTION_DOT":4.013e-5,"MEAN_MOTION_DDOT":0},{"OBJECT_NAME":"DUPLEX","OBJECT_ID":"1998-067XS","EPOCH":"2026-07-13T12:18:45.023040","MEAN_MOTION":15.64469865,"ECCENTRICITY":0.00025257,"INCLINATION":51.6247,"RA_OF_ASC_NODE":156.3374,"ARG_OF_PERICENTER":330.1562,"MEAN_ANOMALY":29.9288,"EPHEMERIS_TYPE":0,"CLASSIFICATION_TYPE":"U","NORAD_CAT_ID":66906,"ELEMENT_SET_NO":999,"REV_AT_EPOCH":3477,"BSTAR":0.00027301176,"MEAN_MOTION_DOT":0.00026322,"MEAN_MOTION_DDOT":0},{"OBJECT_NAME":"KNACKSAT-2","OBJECT_ID":"1998-067XZ","EPOCH":"2026-07-13T06:37:11.095104","MEAN_MOTION":15.62269029,"ECCENTRICITY":0.0008057,"INCLINATION":51.6258,"RA_OF_ASC_NODE":163.0209,"ARG_OF_PERICENTER":321.9354,"MEAN_ANOMALY":38.107,"EPHEMERIS_TYPE":0,"CLASSIFICATION_TYPE":"U","NORAD_CAT_ID":67683,"ELEMENT_SET_NO":999,"REV_AT_EPOCH":2435,"BSTAR":0.0004098,"MEAN_MOTION_DOT":0.00036553,"MEAN_MOTION_DDOT":0},{"OBJECT_NAME":"CORAL","OBJECT_ID":"1998-067YA","EPOCH":"2026-07-13T06:36:48.076416","MEAN_MOTION":15.90188531,"ECCENTRICITY":0.0003924,"INCLINATION":51.616,"RA_OF_ASC_NODE":152.3968,"ARG_OF_PERICENTER":5.842,"MEAN_ANOMALY":354.263,"EPHEMERIS_TYPE":0,"CLASSIFICATION_TYPE":"U","NORAD_CAT_ID":67684,"ELEMENT_SET_NO":999,"REV_AT_EPOCH":2449,"BSTAR":0.001069,"MEAN_MOTION_DOT":0.00328487,"MEAN_MOTION_DDOT":5.0975e-5},{"OBJECT_NAME":"GXIBA-1","OBJECT_ID":"1998-067YB","EPOCH":"2026-07-12T22:16:04.257120","MEAN_MOTION":15.64340851,"ECCENTRICITY":0.00086991,"INCLINATION":51.6233,"RA_OF_ASC_NODE":163.6868,"ARG_OF_PERICENTER":319.0392,"MEAN_ANOMALY":40.9949,"EPHEMERIS_TYPE":0,"CLASSIFICATION_TYPE":"U","NORAD_CAT_ID":67685,"ELEMENT_SET_NO":999,"REV_AT_EPOCH":2431,"BSTAR":0.00054403445,"MEAN_MOTION_DOT":0.00052985,"MEAN_MOTION_DDOT":0},{"OBJECT_NAME":"UITMSAT-2","OBJECT_ID":"1998-067YC","EPOCH":"2026-07-12T22:34:02.656128","MEAN_MOTION":15.68803043,"ECCENTRICITY":0.00040155,"INCLINATION":51.6229,"RA_OF_ASC_NODE":161.5118,"ARG_OF_PERICENTER":319.0645,"MEAN_ANOMALY":41.005,"EPHEMERIS_TYPE":0,"CLASSIFICATION_TYPE":"U","NORAD_CAT_ID":67686,"ELEMENT_SET_NO":999,"REV_AT_EPOCH":2434,"BSTAR":0.00068269243,"MEAN_MOTION_DOT":0.00080007,"MEAN_MOTION_DDOT":0},{"OBJECT_NAME":"LEOPARD","OBJECT_ID":"1998-067YD","EPOCH":"2026-07-13T06:50:16.348416","MEAN_MOTION":15.63553779,"ECCENTRICITY":0.0004736,"INCLINATION":51.6262,"RA_OF_ASC_NODE":162.3417,"ARG_OF_PERICENTER":303.5147,"MEAN_ANOMALY":56.5395,"EPHEMERIS_TYPE":0,"CLASSIFICATION_TYPE":"U","NORAD_CAT_ID":67687,"ELEMENT_SET_NO":999,"REV_AT_EPOCH":2428,"BSTAR":0.00046737,"MEAN_MOTION_DOT":0.00043934,"MEAN_MOTION_DDOT":0},{"OBJECT_NAME":"HMU-SAT2","OBJECT_ID":"1998-067YE","EPOCH":"2026-07-13T06:41:54.074112","MEAN_MOTION":15.66674956,"ECCENTRICITY":0.0004143,"INCLINATION":51.6249,"RA_OF_ASC_NODE":160.7902,"ARG_OF_PERICENTER":312.3343,"MEAN_ANOMALY":47.7301,"EPHEMERIS_TYPE":0,"CLASSIFICATION_TYPE":"U","NORAD_CAT_ID":67688,"ELEMENT_SET_NO":999,"REV_AT_EPOCH":2430,"BSTAR":0.00047156,"MEAN_MOTION_DOT":0.00050291,"MEAN_MOTION_DDOT":0}]
